{"type": "FeatureCollection", "features": [{"type": "Feature", "properties": {"norad_id": 50032, "name": "COSMOS 1408 DEB", "group": "cosmos-1408-debris", "lat": 53.91503819303281, "lon": -123.31987784531468, "alt_km": 429.07922911290734, "timestamp": "2025-12-04T10:51:50.375924+00:00", "meta": {"OBJECT_NAME": "COSMOS 1408 DEB", "OBJECT_ID": "1982-092RU", "EPOCH": "2025-12-03T12:34:05.445696", "MEAN_MOTION": 15.45544262, "ECCENTRICITY": 0.0014683, "INCLINATION": 82.5656, "RA_OF_ASC_NODE": 67.9532, "ARG_OF_PERICENTER": 244.7236, "MEAN_ANOMALY": 115.2492, "EPHEMERIS_TYPE": 0, "CLASSIFICATION_TYPE": "U", "NORAD_CAT_ID": 50032, "ELEMENT_SET_NO": 999, "REV_AT_EPOCH": 22461, "BSTAR": 0.0001592626, "MEAN_MOTION_DOT": 7.716e-05, "MEAN_MOTION_DDOT": 0}, "tle": {"line1": "1 50032U 82092RU  25337.52367414  .00007716  00000+0  15926-3 0  9999", "line2": "2 50032  82.5656  67.9532 0014683 244.7236 115.2492 15.45544262224613"}}, "geometry": {"type": "Point", "coordinates": [-123.31987784531468, 53.91503819303281]}}, {"type": "Feature", "properties": {"norad_id": 50058, "name": "COSMOS 1408 DEB", "group": "cosmos-1408-debris", "lat": 31.511889135075695, "lon": -106.55220936890643, "alt_km": 366.02111517583216, "timestamp": "2025-12-04T10:51:50.375945+00:00", "meta": {"OBJECT_NAME": "COSMOS 1408 DEB", "OBJECT_ID": "1982-092SW", "EPOCH": "2025-12-03T17:20:05.925984", "MEAN_MOTION": 15.63277403, "ECCENTRICITY": 0.00162764, "INCLINATION": 82.6139, "RA_OF_ASC_NODE": 78.7729, "ARG_OF_PERICENTER": 130.9471, "MEAN_ANOMALY": 229.3199, "EPHEMERIS_TYPE": 0, "CLASSIFICATION_TYPE": "U", "NORAD_CAT_ID": 50058, "ELEMENT_SET_NO": 999, "REV_AT_EPOCH": 22663, "BSTAR": 0.0004703099, "MEAN_MOTION_DOT": 0.00043555, "MEAN_MOTION_DDOT": 0}, "tle": {"line1": "1 50058U 82092SW  25337.72229081  .00043555  00000+0  47031-3 0  9999", "line2": "2 50058  82.6139  78.7729 0016276 130.9471 229.3199 15.63277403226638"}}, "geometry": {"type": "Point", "coordinates": [-106.55220936890643, 31.511889135075695]}}, {"type": "Feature", "properties": {"norad_id": 50404, "name": "COSMOS 1408 DEB", "group": "cosmos-1408-debris", "lat": -26.439375043353092, "lon": -140.3991852008553, "alt_km": 566.8322822346545, "timestamp": "2025-12-04T10:51:50.375958+00:00", "meta": {"OBJECT_NAME": "COSMOS 1408 DEB", "OBJECT_ID": "1982-092ADS", "EPOCH": "2025-12-04T03:02:32.218656", "MEAN_MOTION": 15.11972911, "ECCENTRICITY": 0.0175939, "INCLINATION": 82.207, "RA_OF_ASC_NODE": 223.8384, "ARG_OF_PERICENTER": 228.6918, "MEAN_ANOMALY": 129.9057, "EPHEMERIS_TYPE": 0, "CLASSIFICATION_TYPE": "U", "NORAD_CAT_ID": 50404, "ELEMENT_SET_NO": 999, "REV_AT_EPOCH": 21063, "BSTAR": 0.0052613, "MEAN_MOTION_DOT": 0.00133611, "MEAN_MOTION_DDOT": 0}, "tle": {"line1": "1 50404U 82092ADS 25338.12676179  .00133611  00000+0  52613-2 0  9997", "line2": "2 50404  82.2070 223.8384 0175939 228.6918 129.9057 15.11972911210636"}}, "geometry": {"type": "Point", "coordinates": [-140.3991852008553, -26.439375043353092]}}, {"type": "Feature", "properties": {"norad_id": 50621, "name": "COSMOS 1408 DEB", "group": "cosmos-1408-debris", "lat": 24.202845003797542, "lon": 86.16529194227667, "alt_km": 417.00814589260335, "timestamp": "2025-12-04T10:51:50.375969+00:00", "meta": {"OBJECT_NAME": "COSMOS 1408 DEB", "OBJECT_ID": "1982-092ALR", "EPOCH": "2025-12-03T13:08:59.567424", "MEAN_MOTION": 15.55913767, "ECCENTRICITY": 0.00288787, "INCLINATION": 82.5707, "RA_OF_ASC_NODE": 83.7436, "ARG_OF_PERICENTER": 186.1863, "MEAN_ANOMALY": 173.904, "EPHEMERIS_TYPE": 0, "CLASSIFICATION_TYPE": "U", "NORAD_CAT_ID": 50621, "ELEMENT_SET_NO": 999, "REV_AT_EPOCH": 22107, "BSTAR": 0.00051677331, "MEAN_MOTION_DOT": 0.00036634, "MEAN_MOTION_DDOT": 0}, "tle": {"line1": "1 50621U 82092ALR 25337.54791166  .00036634  00000+0  51677-3 0  9994", "line2": "2 50621  82.5707  83.7436 0028878 186.1863 173.9040 15.55913767221077"}}, "geometry": {"type": "Point", "coordinates": [86.16529194227667, 24.202845003797542]}}]}